{"type": "FeatureCollection", "features": [{"type": "Feature", "properties": {"dano": 60, "id": "b00"}, "geometry": {"type": "Polygon", "coordinates": [[[-67.021, 10.6008], [-67.02074, 10.6008], [-67.02074, 10.60093], [-67.021, 10.60093], [-67.021, 10.6008]]]}}, {"type": "Feature", "properties": {"dano": 20, "id": "b01"}, "geometry": {"type": "Polygon", "coordinates": [[[-67.02055, 10.6008], [-67.02029, 10.6008], [-67.02029, 10.60093], [-67.02055, 10.60093], [-67.02055, 10.6008]]]}}, {"type": "Feature", "properties": {"dano": 72, "id": "b02"}, "geometry": {"type": "Polygon", "coordinates": [[[-67.0201, 10.6008], [-67.01984, 10.6008], [-67.01984, 10.60093], [-67.0201, 10.60093], [-67.0201, 10.6008]]]}}, {"type": "Feature", "properties": {"dano": 5, "id": "b03"}, "geometry": {"type": "Polygon", "coordinates": [[[-67.01965, 10.6008], [-67.01939, 10.6008], [-67.01939, 10.60093], [-67.01965, 10.60093], [-67.01965, 10.6008]]]}}, {"type": "Feature", "properties": {"dano": 12, "id": "b04"}, "geometry": {"type": "Polygon", "coordinates": [[[-67.0192, 10.6008], [-67.01894, 10.6008], [-67.01894, 10.60093], [-67.0192, 10.60093], [-67.0192, 10.6008]]]}}, {"type": "Feature", "properties": {"dano": 95, "id": "b05"}, "geometry": {"type": "Polygon", "coordinates": [[[-67.01875, 10.6008], [-67.01849, 10.6008], [-67.01849, 10.60093], [-67.01875, 10.60093], [-67.01875, 10.6008]]]}}, {"type": "Feature", "properties": {"dano": 12, "id": "b06"}, "geometry": {"type": "Polygon", "coordinates": [[[-67.0183, 10.6008], [-67.01804, 10.6008], [-67.01804, 10.60093], [-67.0183, 10.60093], [-67.0183, 10.6008]]]}}, {"type": "Feature", "properties": {"dano": 60, "id": "b07"}, "geometry": {"type": "Polygon", "coordinates": [[[-67.01785, 10.6008], [-67.01759, 10.6008], [-67.01759, 10.60093], [-67.01785, 10.60093], [-67.01785, 10.6008]]]}}, {"type": "Feature", "properties": {"dano": 5, "id": "b08"}, "geometry": {"type": "Polygon", "coordinates": [[[-67.0174, 10.6008], [-67.01714, 10.6008], [-67.01714, 10.60093], [-67.0174, 10.60093], [-67.0174, 10.6008]]]}}, {"type": "Feature", "properties": {"dano": 95, "id": "b10"}, "geometry": {"type": "Polygon", "coordinates": [[[-67.021, 10.601149999999999], [-67.02074, 10.601149999999999], [-67.02074, 10.60128], [-67.021, 10.60128], [-67.021, 10.601149999999999]]]}}, {"type": "Feature", "properties": {"dano": 35, "id": "b11"}, "geometry": {"type": "Polygon", "coordinates": [[[-67.02055, 10.601149999999999], [-67.02029, 10.601149999999999], [-67.02029, 10.60128], [-67.02055, 10.60128], [-67.02055, 10.601149999999999]]]}}, {"type": "Feature", "properties": {"dano": 5, "id": "b12"}, "geometry": {"type": "Polygon", "coordinates": [[[-67.0201, 10.601149999999999], [-67.01984, 10.601149999999999], [-67.01984, 10.60128], [-67.0201, 10.60128], [-67.0201, 10.601149999999999]]]}}, {"type": "Feature", "properties": {"dano": 12, "id": "b13"}, "geometry": {"type": "Polygon", "coordinates": [[[-67.01965, 10.601149999999999], [-67.01939, 10.601149999999999], [-67.01939, 10.60128], [-67.01965, 10.60128], [-67.01965, 10.601149999999999]]]}}, {"type": "Feature", "properties": {"dano": 72, "id": "b14"}, "geometry": {"type": "Polygon", "coordinates": [[[-67.0192, 10.601149999999999], [-67.01894, 10.601149999999999], [-67.01894, 10.60128], [-67.0192, 10.60128], [-67.0192, 10.601149999999999]]]}}, {"type": "Feature", "properties": {"dano": 72, "id": "b15"}, "geometry": {"type": "Polygon", "coordinates": [[[-67.01875, 10.601149999999999], [-67.01849, 10.601149999999999], [-67.01849, 10.60128], [-67.01875, 10.60128], [-67.01875, 10.601149999999999]]]}}, {"type": "Feature", "properties": {"dano": 12, "id": "b16"}, "geometry": {"type": "Polygon", "coordinates": [[[-67.0183, 10.601149999999999], [-67.01804, 10.601149999999999], [-67.01804, 10.60128], [-67.0183, 10.60128], [-67.0183, 10.601149999999999]]]}}, {"type": "Feature", "properties": {"dano": 35, "id": "b17"}, "geometry": {"type": "Polygon", "coordinates": [[[-67.01785, 10.601149999999999], [-67.01759, 10.601149999999999], [-67.01759, 10.60128], [-67.01785, 10.60128], [-67.01785, 10.601149999999999]]]}}, {"type": "Feature", "properties": {"dano": 12, "id": "b18"}, "geometry": {"type": "Polygon", "coordinates": [[[-67.0174, 10.601149999999999], [-67.01714, 10.601149999999999], [-67.01714, 10.60128], [-67.0174, 10.60128], [-67.0174, 10.601149999999999]]]}}, {"type": "Feature", "properties": {"dano": 95, "id": "b20"}, "geometry": {"type": "Polygon", "coordinates": [[[-67.021, 10.6015], [-67.02074, 10.6015], [-67.02074, 10.60163], [-67.021, 10.60163], [-67.021, 10.6015]]]}}, {"type": "Feature", "properties": {"dano": 72, "id": "b21"}, "geometry": {"type": "Polygon", "coordinates": [[[-67.02055, 10.6015], [-67.02029, 10.6015], [-67.02029, 10.60163], [-67.02055, 10.60163], [-67.02055, 10.6015]]]}}, {"type": "Feature", "properties": {"dano": 5, "id": "b22"}, "geometry": {"type": "Polygon", "coordinates": [[[-67.0201, 10.6015], [-67.01984, 10.6015], [-67.01984, 10.60163], [-67.0201, 10.60163], [-67.0201, 10.6015]]]}}, {"type": "Feature", "properties": {"dano": 12, "id": "b23"}, "geometry": {"type": "Polygon", "coordinates": [[[-67.01965, 10.6015], [-67.01939, 10.6015], [-67.01939, 10.60163], [-67.01965, 10.60163], [-67.01965, 10.6015]]]}}, {"type": "Feature", "properties": {"dano": 35, "id": "b24"}, "geometry": {"type": "Polygon", "coordinates": [[[-67.0192, 10.6015], [-67.01894, 10.6015], [-67.01894, 10.60163], [-67.0192, 10.60163], [-67.0192, 10.6015]]]}}, {"type": "Feature", "properties": {"dano": 5, "id": "b25"}, "geometry": {"type": "Polygon", "coordinates": [[[-67.01875, 10.6015], [-67.01849, 10.6015], [-67.01849, 10.60163], [-67.01875, 10.60163], [-67.01875, 10.6015]]]}}, {"type": "Feature", "properties": {"dano": 72, "id": "b26"}, "geometry": {"type": "Polygon", "coordinates": [[[-67.0183, 10.6015], [-67.01804, 10.6015], [-67.01804, 10.60163], [-67.0183, 10.60163], [-67.0183, 10.6015]]]}}, {"type": "Feature", "properties": {"dano": 5, "id": "b27"}, "geometry": {"type": "Polygon", "coordinates": [[[-67.01785, 10.6015], [-67.01759, 10.6015], [-67.01759, 10.60163], [-67.01785, 10.60163], [-67.01785, 10.6015]]]}}, {"type": "Feature", "properties": {"dano": 35, "id": "b28"}, "geometry": {"type": "Polygon", "coordinates": [[[-67.0174, 10.6015], [-67.01714, 10.6015], [-67.01714, 10.60163], [-67.0174, 10.60163], [-67.0174, 10.6015]]]}}, {"type": "Feature", "properties": {"dano": 5, "id": "b30"}, "geometry": {"type": "Polygon", "coordinates": [[[-67.021, 10.601849999999999], [-67.02074, 10.601849999999999], [-67.02074, 10.60198], [-67.021, 10.60198], [-67.021, 10.601849999999999]]]}}, {"type": "Feature", "properties": {"dano": 95, "id": "b31"}, "geometry": {"type": "Polygon", "coordinates": [[[-67.02055, 10.601849999999999], [-67.02029, 10.601849999999999], [-67.02029, 10.60198], [-67.02055, 10.60198], [-67.02055, 10.601849999999999]]]}}, {"type": "Feature", "properties": {"dano": 20, "id": "b32"}, "geometry": {"type": "Polygon", "coordinates": [[[-67.0201, 10.601849999999999], [-67.01984, 10.601849999999999], [-67.01984, 10.60198], [-67.0201, 10.60198], [-67.0201, 10.601849999999999]]]}}, {"type": "Feature", "properties": {"dano": 48, "id": "b33"}, "geometry": {"type": "Polygon", "coordinates": [[[-67.01965, 10.601849999999999], [-67.01939, 10.601849999999999], [-67.01939, 10.60198], [-67.01965, 10.60198], [-67.01965, 10.601849999999999]]]}}, {"type": "Feature", "properties": {"dano": 72, "id": "b34"}, "geometry": {"type": "Polygon", "coordinates": [[[-67.0192, 10.601849999999999], [-67.01894, 10.601849999999999], [-67.01894, 10.60198], [-67.0192, 10.60198], [-67.0192, 10.601849999999999]]]}}, {"type": "Feature", "properties": {"dano": 20, "id": "b35"}, "geometry": {"type": "Polygon", "coordinates": [[[-67.01875, 10.601849999999999], [-67.01849, 10.601849999999999], [-67.01849, 10.60198], [-67.01875, 10.60198], [-67.01875, 10.601849999999999]]]}}, {"type": "Feature", "properties": {"dano": 95, "id": "b36"}, "geometry": {"type": "Polygon", "coordinates": [[[-67.0183, 10.601849999999999], [-67.01804, 10.601849999999999], [-67.01804, 10.60198], [-67.0183, 10.60198], [-67.0183, 10.601849999999999]]]}}, {"type": "Feature", "properties": {"dano": 12, "id": "b37"}, "geometry": {"type": "Polygon", "coordinates": [[[-67.01785, 10.601849999999999], [-67.01759, 10.601849999999999], [-67.01759, 10.60198], [-67.01785, 10.60198], [-67.01785, 10.601849999999999]]]}}, {"type": "Feature", "properties": {"dano": 48, "id": "b38"}, "geometry": {"type": "Polygon", "coordinates": [[[-67.0174, 10.601849999999999], [-67.01714, 10.601849999999999], [-67.01714, 10.60198], [-67.0174, 10.60198], [-67.0174, 10.601849999999999]]]}}, {"type": "Feature", "properties": {"dano": 95, "id": "b40"}, "geometry": {"type": "Polygon", "coordinates": [[[-67.021, 10.6022], [-67.02074, 10.6022], [-67.02074, 10.60233], [-67.021, 10.60233], [-67.021, 10.6022]]]}}, {"type": "Feature", "properties": {"dano": 20, "id": "b41"}, "geometry": {"type": "Polygon", "coordinates": [[[-67.02055, 10.6022], [-67.02029, 10.6022], [-67.02029, 10.60233], [-67.02055, 10.60233], [-67.02055, 10.6022]]]}}, {"type": "Feature", "properties": {"dano": 12, "id": "b42"}, "geometry": {"type": "Polygon", "coordinates": [[[-67.0201, 10.6022], [-67.01984, 10.6022], [-67.01984, 10.60233], [-67.0201, 10.60233], [-67.0201, 10.6022]]]}}, {"type": "Feature", "properties": {"dano": 35, "id": "b43"}, "geometry": {"type": "Polygon", "coordinates": [[[-67.01965, 10.6022], [-67.01939, 10.6022], [-67.01939, 10.60233], [-67.01965, 10.60233], [-67.01965, 10.6022]]]}}, {"type": "Feature", "properties": {"dano": 60, "id": "b44"}, "geometry": {"type": "Polygon", "coordinates": [[[-67.0192, 10.6022], [-67.01894, 10.6022], [-67.01894, 10.60233], [-67.0192, 10.60233], [-67.0192, 10.6022]]]}}, {"type": "Feature", "properties": {"dano": 12, "id": "b45"}, "geometry": {"type": "Polygon", "coordinates": [[[-67.01875, 10.6022], [-67.01849, 10.6022], [-67.01849, 10.60233], [-67.01875, 10.60233], [-67.01875, 10.6022]]]}}, {"type": "Feature", "properties": {"dano": 95, "id": "b46"}, "geometry": {"type": "Polygon", "coordinates": [[[-67.0183, 10.6022], [-67.01804, 10.6022], [-67.01804, 10.60233], [-67.0183, 10.60233], [-67.0183, 10.6022]]]}}, {"type": "Feature", "properties": {"dano": 12, "id": "b47"}, "geometry": {"type": "Polygon", "coordinates": [[[-67.01785, 10.6022], [-67.01759, 10.6022], [-67.01759, 10.60233], [-67.01785, 10.60233], [-67.01785, 10.6022]]]}}, {"type": "Feature", "properties": {"dano": 5, "id": "b48"}, "geometry": {"type": "Polygon", "coordinates": [[[-67.0174, 10.6022], [-67.01714, 10.6022], [-67.01714, 10.60233], [-67.0174, 10.60233], [-67.0174, 10.6022]]]}}, {"type": "Feature", "properties": {"dano": 35, "id": "b50"}, "geometry": {"type": "Polygon", "coordinates": [[[-67.021, 10.602549999999999], [-67.02074, 10.602549999999999], [-67.02074, 10.60268], [-67.021, 10.60268], [-67.021, 10.602549999999999]]]}}, {"type": "Feature", "properties": {"dano": 85, "id": "b51"}, "geometry": {"type": "Polygon", "coordinates": [[[-67.02055, 10.602549999999999], [-67.02029, 10.602549999999999], [-67.02029, 10.60268], [-67.02055, 10.60268], [-67.02055, 10.602549999999999]]]}}, {"type": "Feature", "properties": {"dano": 95, "id": "b52"}, "geometry": {"type": "Polygon", "coordinates": [[[-67.0201, 10.602549999999999], [-67.01984, 10.602549999999999], [-67.01984, 10.60268], [-67.0201, 10.60268], [-67.0201, 10.602549999999999]]]}}, {"type": "Feature", "properties": {"dano": 72, "id": "b53"}, "geometry": {"type": "Polygon", "coordinates": [[[-67.01965, 10.602549999999999], [-67.01939, 10.602549999999999], [-67.01939, 10.60268], [-67.01965, 10.60268], [-67.01965, 10.602549999999999]]]}}, {"type": "Feature", "properties": {"dano": 60, "id": "b54"}, "geometry": {"type": "Polygon", "coordinates": [[[-67.0192, 10.602549999999999], [-67.01894, 10.602549999999999], [-67.01894, 10.60268], [-67.0192, 10.60268], [-67.0192, 10.602549999999999]]]}}, {"type": "Feature", "properties": {"dano": 85, "id": "b55"}, "geometry": {"type": "Polygon", "coordinates": [[[-67.01875, 10.602549999999999], [-67.01849, 10.602549999999999], [-67.01849, 10.60268], [-67.01875, 10.60268], [-67.01875, 10.602549999999999]]]}}, {"type": "Feature", "properties": {"dano": 85, "id": "b56"}, "geometry": {"type": "Polygon", "coordinates": [[[-67.0183, 10.602549999999999], [-67.01804, 10.602549999999999], [-67.01804, 10.60268], [-67.0183, 10.60268], [-67.0183, 10.602549999999999]]]}}, {"type": "Feature", "properties": {"dano": 60, "id": "b57"}, "geometry": {"type": "Polygon", "coordinates": [[[-67.01785, 10.602549999999999], [-67.01759, 10.602549999999999], [-67.01759, 10.60268], [-67.01785, 10.60268], [-67.01785, 10.602549999999999]]]}}, {"type": "Feature", "properties": {"dano": 48, "id": "b58"}, "geometry": {"type": "Polygon", "coordinates": [[[-67.0174, 10.602549999999999], [-67.01714, 10.602549999999999], [-67.01714, 10.60268], [-67.0174, 10.60268], [-67.0174, 10.602549999999999]]]}}, {"type": "Feature", "properties": {"dano": 35, "id": "b60"}, "geometry": {"type": "Polygon", "coordinates": [[[-67.021, 10.6029], [-67.02074, 10.6029], [-67.02074, 10.60303], [-67.021, 10.60303], [-67.021, 10.6029]]]}}, {"type": "Feature", "properties": {"dano": 20, "id": "b61"}, "geometry": {"type": "Polygon", "coordinates": [[[-67.02055, 10.6029], [-67.02029, 10.6029], [-67.02029, 10.60303], [-67.02055, 10.60303], [-67.02055, 10.6029]]]}}, {"type": "Feature", "properties": {"dano": 35, "id": "b62"}, "geometry": {"type": "Polygon", "coordinates": [[[-67.0201, 10.6029], [-67.01984, 10.6029], [-67.01984, 10.60303], [-67.0201, 10.60303], [-67.0201, 10.6029]]]}}, {"type": "Feature", "properties": {"dano": 12, "id": "b63"}, "geometry": {"type": "Polygon", "coordinates": [[[-67.01965, 10.6029], [-67.01939, 10.6029], [-67.01939, 10.60303], [-67.01965, 10.60303], [-67.01965, 10.6029]]]}}, {"type": "Feature", "properties": {"dano": 48, "id": "b64"}, "geometry": {"type": "Polygon", "coordinates": [[[-67.0192, 10.6029], [-67.01894, 10.6029], [-67.01894, 10.60303], [-67.0192, 10.60303], [-67.0192, 10.6029]]]}}, {"type": "Feature", "properties": {"dano": 95, "id": "b65"}, "geometry": {"type": "Polygon", "coordinates": [[[-67.01875, 10.6029], [-67.01849, 10.6029], [-67.01849, 10.60303], [-67.01875, 10.60303], [-67.01875, 10.6029]]]}}, {"type": "Feature", "properties": {"dano": 85, "id": "b66"}, "geometry": {"type": "Polygon", "coordinates": [[[-67.0183, 10.6029], [-67.01804, 10.6029], [-67.01804, 10.60303], [-67.0183, 10.60303], [-67.0183, 10.6029]]]}}, {"type": "Feature", "properties": {"dano": 60, "id": "b67"}, "geometry": {"type": "Polygon", "coordinates": [[[-67.01785, 10.6029], [-67.01759, 10.6029], [-67.01759, 10.60303], [-67.01785, 10.60303], [-67.01785, 10.6029]]]}}, {"type": "Feature", "properties": {"dano": 85, "id": "b68"}, "geometry": {"type": "Polygon", "coordinates": [[[-67.0174, 10.6029], [-67.01714, 10.6029], [-67.01714, 10.60303], [-67.0174, 10.60303], [-67.0174, 10.6029]]]}}, {"type": "Feature", "properties": {"dano": 48, "id": "b70"}, "geometry": {"type": "Polygon", "coordinates": [[[-67.021, 10.60325], [-67.02074, 10.60325], [-67.02074, 10.60338], [-67.021, 10.60338], [-67.021, 10.60325]]]}}, {"type": "Feature", "properties": {"dano": 12, "id": "b71"}, "geometry": {"type": "Polygon", "coordinates": [[[-67.02055, 10.60325], [-67.02029, 10.60325], [-67.02029, 10.60338], [-67.02055, 10.60338], [-67.02055, 10.60325]]]}}, {"type": "Feature", "properties": {"dano": 12, "id": "b72"}, "geometry": {"type": "Polygon", "coordinates": [[[-67.0201, 10.60325], [-67.01984, 10.60325], [-67.01984, 10.60338], [-67.0201, 10.60338], [-67.0201, 10.60325]]]}}, {"type": "Feature", "properties": {"dano": 95, "id": "b73"}, "geometry": {"type": "Polygon", "coordinates": [[[-67.01965, 10.60325], [-67.01939, 10.60325], [-67.01939, 10.60338], [-67.01965, 10.60338], [-67.01965, 10.60325]]]}}, {"type": "Feature", "properties": {"dano": 72, "id": "b74"}, "geometry": {"type": "Polygon", "coordinates": [[[-67.0192, 10.60325], [-67.01894, 10.60325], [-67.01894, 10.60338], [-67.0192, 10.60338], [-67.0192, 10.60325]]]}}, {"type": "Feature", "properties": {"dano": 20, "id": "b75"}, "geometry": {"type": "Polygon", "coordinates": [[[-67.01875, 10.60325], [-67.01849, 10.60325], [-67.01849, 10.60338], [-67.01875, 10.60338], [-67.01875, 10.60325]]]}}, {"type": "Feature", "properties": {"dano": 60, "id": "b76"}, "geometry": {"type": "Polygon", "coordinates": [[[-67.0183, 10.60325], [-67.01804, 10.60325], [-67.01804, 10.60338], [-67.0183, 10.60338], [-67.0183, 10.60325]]]}}, {"type": "Feature", "properties": {"dano": 20, "id": "b77"}, "geometry": {"type": "Polygon", "coordinates": [[[-67.01785, 10.60325], [-67.01759, 10.60325], [-67.01759, 10.60338], [-67.01785, 10.60338], [-67.01785, 10.60325]]]}}, {"type": "Feature", "properties": {"dano": 85, "id": "b78"}, "geometry": {"type": "Polygon", "coordinates": [[[-67.0174, 10.60325], [-67.01714, 10.60325], [-67.01714, 10.60338], [-67.0174, 10.60338], [-67.0174, 10.60325]]]}}, {"type": "Feature", "properties": {"dano": 72, "id": "b80"}, "geometry": {"type": "Polygon", "coordinates": [[[-67.021, 10.6036], [-67.02074, 10.6036], [-67.02074, 10.60373], [-67.021, 10.60373], [-67.021, 10.6036]]]}}, {"type": "Feature", "properties": {"dano": 5, "id": "b81"}, "geometry": {"type": "Polygon", "coordinates": [[[-67.02055, 10.6036], [-67.02029, 10.6036], [-67.02029, 10.60373], [-67.02055, 10.60373], [-67.02055, 10.6036]]]}}, {"type": "Feature", "properties": {"dano": 12, "id": "b82"}, "geometry": {"type": "Polygon", "coordinates": [[[-67.0201, 10.6036], [-67.01984, 10.6036], [-67.01984, 10.60373], [-67.0201, 10.60373], [-67.0201, 10.6036]]]}}, {"type": "Feature", "properties": {"dano": 95, "id": "b83"}, "geometry": {"type": "Polygon", "coordinates": [[[-67.01965, 10.6036], [-67.01939, 10.6036], [-67.01939, 10.60373], [-67.01965, 10.60373], [-67.01965, 10.6036]]]}}, {"type": "Feature", "properties": {"dano": 60, "id": "b84"}, "geometry": {"type": "Polygon", "coordinates": [[[-67.0192, 10.6036], [-67.01894, 10.6036], [-67.01894, 10.60373], [-67.0192, 10.60373], [-67.0192, 10.6036]]]}}, {"type": "Feature", "properties": {"dano": 60, "id": "b85"}, "geometry": {"type": "Polygon", "coordinates": [[[-67.01875, 10.6036], [-67.01849, 10.6036], [-67.01849, 10.60373], [-67.01875, 10.60373], [-67.01875, 10.6036]]]}}, {"type": "Feature", "properties": {"dano": 60, "id": "b86"}, "geometry": {"type": "Polygon", "coordinates": [[[-67.0183, 10.6036], [-67.01804, 10.6036], [-67.01804, 10.60373], [-67.0183, 10.60373], [-67.0183, 10.6036]]]}}, {"type": "Feature", "properties": {"dano": 85, "id": "b87"}, "geometry": {"type": "Polygon", "coordinates": [[[-67.01785, 10.6036], [-67.01759, 10.6036], [-67.01759, 10.60373], [-67.01785, 10.60373], [-67.01785, 10.6036]]]}}, {"type": "Feature", "properties": {"dano": 85, "id": "b88"}, "geometry": {"type": "Polygon", "coordinates": [[[-67.0174, 10.6036], [-67.01714, 10.6036], [-67.01714, 10.60373], [-67.0174, 10.60373], [-67.0174, 10.6036]]]}}]}